[{"OBJECT_NAME":"STARLINK-4265","OBJECT_ID":"2022-076AB","EPOCH":"2026-03-09T08:53:00.695616","MEAN_MOTION":15.0884958,"ECCENTRICITY":0.00012803,"INCLINATION":53.2175,"RA_OF_ASC_NODE":85.5532,"ARG_OF_PERICENTER":86.9138,"MEAN_ANOMALY":273.2001,"EPHEMERIS_TYPE":0,"CLASSIFICATION_TYPE":"U","NORAD_CAT_ID":53011,"ELEMENT_SET_NO":999,"REV_AT_EPOCH":20293,"BSTAR":6.693628e-5,"MEAN_MOTION_DOT":7.78e-6,"MEAN_MOTION_DDOT":0},{"OBJECT_NAME":"CZ-6A DEB","OBJECT_ID":"2024-140ZQ","EPOCH":"2026-03-09T07:41:20.503680","MEAN_MOTION":14.88666488,"ECCENTRICITY":0.01239144,"INCLINATION":88.9332,"RA_OF_ASC_NODE":275.1602,"ARG_OF_PERICENTER":122.3295,"MEAN_ANOMALY":239.0003,"EPHEMERIS_TYPE":0,"CLASSIFICATION_TYPE":"U","NORAD_CAT_ID":61458,"ELEMENT_SET_NO":999,"REV_AT_EPOCH":8241,"BSTAR":0.001542641,"MEAN_MOTION_DOT":0.00016654,"MEAN_MOTION_DDOT":0}]
